ORBCOMM FM33            
1 25983U 99065D   25224.00904301  .00000720  00000+0  27094-3 0  9991
2 25983  45.0286  93.5430 0008945 347.5299  12.5328 14.40091407344117
ORBCOMM FM36            
1 25984U 99065E   25224.60247816  .00001149  00000+0  42122-3 0  9994
2 25984  45.0380 183.5210 0003941 262.1690  97.8712 14.38229179342541
ORBCOMM FM35            
1 25985U 99065F   25224.62277966  .00000951  00000+0  36400-3 0  9998
2 25985  45.0382 188.9079 0005918 314.3286  45.7076 14.37190036342906
ORBCOMM FM34            
1 25986U 99065G   25224.58805427  .00000783  00000+0  30802-3 0  9996
2 25986  45.0377 189.5303 0005795 281.2032  78.8165 14.37201596343015
ORBCOMM FM38            
1 33060U 08031A   25224.80199858  .00001701  00000+0  24186-3 0  9999
2 33060  48.4413  45.4064 0005278 280.6022  79.4299 14.81500767923141
ORBCOMM FM41            
1 33061U 08031B   25224.48813539  .00001452  00000+0  21247-3 0  9991
2 33061  48.4447  54.8764 0004541 264.4594 118.0457 14.81076588922588
ORBCOMM FM29            
1 33062U 08031C   25224.29370755  .00001675  00000+0  24024-3 0  9992
2 33062  48.4398  63.5432 0006174 263.9780 266.1671 14.81184872922464
ORBCOMM FM39            
1 33063U 08031D   25224.34787172  .00001371  00000+0  20853-3 0  9993
2 33063  48.4408  88.1776 0007026 237.8628 122.1606 14.79717358922118
